[{"OBJECT_NAME":"VIZARD-METEO (RS38S)","OBJECT_ID":"2023-091Z","EPOCH":"2026-03-09T23:01:09.168960","MEAN_MOTION":15.32764799,"ECCENTRICITY":0.00087615,"INCLINATION":97.5192,"RA_OF_ASC_NODE":136.6522,"ARG_OF_PERICENTER":71.7666,"MEAN_ANOMALY":288.4529,"EPHEMERIS_TYPE":0,"CLASSIFICATION_TYPE":"U","NORAD_CAT_ID":57189,"ELEMENT_SET_NO":999,"REV_AT_EPOCH":14947,"BSTAR":0.00066106249,"MEAN_MOTION_DOT":0.00020895,"MEAN_MOTION_DDOT":0},{"OBJECT_NAME":"STARLINK-34853","OBJECT_ID":"2025-224L","EPOCH":"2026-03-09T05:21:34.009920","MEAN_MOTION":15.30190301,"ECCENTRICITY":0.00010648,"INCLINATION":53.161,"RA_OF_ASC_NODE":13.4669,"ARG_OF_PERICENTER":90.7597,"MEAN_ANOMALY":269.3526,"EPHEMERIS_TYPE":0,"CLASSIFICATION_TYPE":"U","NORAD_CAT_ID":65892,"ELEMENT_SET_NO":999,"REV_AT_EPOCH":2473,"BSTAR":0.00084273139,"MEAN_MOTION_DOT":0.00024675,"MEAN_MOTION_DDOT":0}]
